STARLINK-6369           
1 57374U 23099AY  24104.26837888  .00001612  00000+0  13441-3 0  9995
2 57374  43.0059  41.9514 0001312 274.4689  85.6004 15.02524297 41803
STARLINK-6363           
1 57375U 23099AZ  24105.16107514  .00000399  00000+0  44650-4 0  9990
2 57375  43.0044  49.6239 0001436 273.5045  86.5633 15.02534051 42538
STARLINK-6367           
1 57376U 23099BA  24105.15108186  .00001117  00000+0  97738-4 0  9990
2 57376  43.0045  49.5472 0001367 260.9712  99.0976 15.02534666 42533
STARLINK-6358           
1 57377U 23099BB  24104.35778872  .00002237  00000+0  18062-3 0  9993
2 57377  43.0041  53.9160 0001459 270.6639  89.4036 15.02535979 41673
STARLINK-6364           
1 57378U 23099BC  24105.10952719  .00000769  00000+0  71988-4 0  9997
2 57378  43.0061  24.0829 0001170 261.2367  98.8343 15.02548230 42828
STARLINK-6361           
1 57379U 23099BD  24105.08571441  .00000661  00000+0  63990-4 0  9999
2 57379  43.0044  49.9178 0001303 268.2110  91.8583 15.02538633 42526
STARLINK-6366           
1 57380U 23099BE  24105.10842404  .00000968  00000+0  86718-4 0  9997
2 57380  43.0084  24.0704 0001054 275.2324  84.8398 15.02541517 42812
STARLINK-6371           
1 57381U 23099BF  24104.23507590  .00000373  00000+0  42712-4 0  9991
2 57381  43.0054  41.6985 0001257 263.8203  96.2496 15.02541124 42540
STARLINK-30240          
1 57404U 23102A   24105.12984362  .00000558  00000+0  56376-4 0  9993
2 57404  43.0053  63.1693 0001227 268.6393  91.4309 15.02535135 41757
STARLINK-30192          
1 57405U 23102B   24104.39525205 -.00000103  00000+0  74797-5 0  9994
2 57405  43.0037  67.0966 0001455 258.4717 101.5962 15.02531222 41645
STARLINK-30195          
1 57406U 23102C   24104.32546709  .00009651  00000+0  72843-3 0  9994
2 57406  43.0034  67.4502 0001090 246.5977 113.4751 15.02540975 41636
STARLINK-30207          
1 57407U 23102D   24105.02367452  .00002128  00000+0  17259-3 0  9991
2 57407  43.0042  50.3069 0001281 267.6295  92.4400 15.02535063 41891
STARLINK-30205          
1 57408U 23102E   24104.38193328  .00002333  00000+0  18768-3 0  9993
2 57408  43.0042  67.0169 0001190 266.4706  93.6000 15.02538822 41649
STARLINK-30222          
1 57409U 23102F   24105.10320306  .00010453  00000+0  78758-3 0  9990
2 57409  43.0028  62.9691 0001304 261.1743  98.8952 15.02542213 41752
STARLINK-30172          
1 57410U 23102G   24105.10986480  .00001828  00000+0  15033-3 0  9996
2 57410  43.0047  63.0034 0001139 273.9449  86.1263 15.02536662 41754
STARLINK-30214          
1 57411U 23102H   24104.34863916  .00002744  00000+0  21808-3 0  9995
2 57411  43.0037  66.7748 0001156 262.9778  97.0933 15.02538384 41598
STARLINK-30182          
1 57412U 23102J   24104.37526246  .00005892  00000+0  45064-3 0  9998
2 57412  43.0041  66.9655 0001422 256.3977 103.6707 15.02554373 41642
STARLINK-30191          
1 57413U 23102K   24104.29880599  .00000432  00000+0  47047-4 0  9993
2 57413  43.0060  67.2530 0001051 271.4982  88.5740 15.02545693 41634
STARLINK-30193          
1 57414U 23102L   24104.36861415  .00002138  00000+0  17329-3 0  9992
2 57414  43.0038  66.9147 0001078 262.2428  97.8292 15.02544473 41643
STARLINK-30208          
1 57415U 23102M   24104.36194866  .00001932  00000+0  15799-3 0  9992
2 57415  43.0046  66.8643 0001077 260.0548 100.0173 15.02550293 41597
STARLINK-30224          
1 57416U 23102N   24105.02340757 -.00000368  00000+0 -12180-4 0  9995
2 57416  43.0042  63.2272 0001181 263.1796  96.8911 15.02533562 41747
STARLINK-30043          
1 57417U 23102P   24105.01674890  .00000238  00000+0  32689-4 0  9993
2 57417  43.0042  63.1796 0000985 272.2130  87.8600 15.02535429 41741
STARLINK-30221          
1 57418U 23102Q   24104.35529780  .00001660  00000+0  13795-3 0  9993
2 57418  43.0043  66.8140 0001766 245.2379 114.8279 15.02533373 41647
STARLINK-30189          
1 57430U 23105A   24104.98666090  .00000940  00000+0  84664-4 0  9999
2 57430  43.0037  76.9474 0001003 260.4737  99.5992 15.02532754 41011
STARLINK-30170          
1 57431U 23105B   24105.11628155  .00000280  00000+0  35765-4 0  9991
2 57431  43.0037  76.2023 0001351 253.8173 106.2521 15.02536561 41082
STARLINK-30188          
1 57432U 23105C   24104.31521319  .00005744  00000+0  43972-3 0  9995
2 57432  43.0038  80.5115 0001221 262.6797  97.3907 15.02551368 40922
STARLINK-30105          
1 57433U 23105D   24104.91667824  .00017417  00000+0  57839-3 0  9991
2 57433  43.0024  31.7030 0005715 216.3389   0.8308 15.30918297  5864
STARLINK-30102          
1 57434U 23105E   24104.97333993  .00002061  00000+0  16760-3 0  9992
2 57434  43.0033  76.8456 0001052 273.2863  86.7859 15.02534477 41043
STARLINK-30180          
1 57435U 23105F   24104.37836582  .00002097  00000+0  17023-3 0  9991
2 57435  43.0041  80.1193 0001247 260.9860  99.0842 15.02535008 41023
STARLINK-30183          
1 57436U 23105G   24104.96998938  .00003725  00000+0  29051-3 0  9994
2 57436  43.0033  76.8212 0001142 264.0333  96.0379 15.02555978 41067
STARLINK-30237          
1 57437U 23105H   24105.16278215  .00002286  00000+0  18421-3 0  9997
2 57437  43.0035  75.6863 0001327 263.4295  96.6396 15.02536860 41327
STARLINK-30158          
1 57438U 23105J   24105.03314802  .00001925  00000+0  15747-3 0  9994
2 57438  43.0033  76.4392 0001487 261.0427  99.0247 15.02546951 41076
STARLINK-30173          
1 57439U 23105K   24105.05331485  .00001189  00000+0  10307-3 0  9992
2 57439  43.0043  63.0091 0001167 265.2373  94.8336 15.02540389 41236
STARLINK-30159          
1 57440U 23105L   24105.15943413  .00005500  00000+0  42160-3 0  9998
2 57440  43.0025  75.6601 0001116 270.1641  89.9073 15.02562158 40949
STARLINK-30160          
1 57441U 23105M   24105.08963873  .00006959  00000+0  52995-3 0  9999
2 57441  43.0027  75.9963 0001186 220.3481 139.7274 15.02517535 40915
STARLINK-30146          
1 57442U 23105N   24104.95335478  .00015947  00000+0  11926-2 0  9994
2 57442  43.0033  76.6977 0001382 256.1840 103.8849 15.02544379 41120
STARLINK-30197          
1 57443U 23105P   24105.14945402  .00005095  00000+0  39192-3 0  9990
2 57443  43.0026  75.5864 0000752 236.4719 123.6051 15.02538857 41154
STARLINK-30181          
1 57444U 23105Q   24105.00318321  .00002166  00000+0  17534-3 0  9992
2 57444  43.0040  76.2106 0001371 264.2565  95.8121 15.02542836 41132
STARLINK-30215          
1 57445U 23105R   24104.99986035  .00000964  00000+0  86441-4 0  9991
2 57445  43.0030  76.1887 0000986 256.8444 103.2289 15.02532302 40877
STARLINK-30162          
1 57446U 23105S   24104.93366798  .00001948  00000+0  15921-3 0  9991
2 57446  43.0037  63.8110 0001050 260.1824  99.8900 15.02538748 41219
STARLINK-30178          
1 57447U 23105T   24105.00652302  .00000217  00000+0  31147-4 0  9997
2 57447  43.0027  76.2369 0000754 255.2868 104.7891 15.02531997 41074
STARLINK-30196          
1 57448U 23105U   24104.99652698  .00001835  00000+0  15089-3 0  9996
2 57448  43.0038  76.1617 0001394 270.6269  89.4413 15.02540178 40900
STARLINK-30225          
1 57449U 23105V   24104.99319035  .00006215  00000+0  47455-3 0  9991
2 57449  43.0035  76.1355 0001333 264.9044  95.1646 15.02551280 41164
STARLINK-30217          
1 57450U 23105W   24104.98350826  .00003468  00000+0  27162-3 0  9995
2 57450  43.0037  63.3750 0001456 266.4680  93.5995 15.02539235 41226
STARLINK-30216          
1 57451U 23105X   24105.05634756  .00001211  00000+0  10470-3 0  9990
2 57451  43.0034  75.7632 0001006 259.1577 100.9152 15.02539862 40936
STARLINK-30165          
1 57457U 23107A   24105.21765889  .00001697  00000+0  14067-3 0  9992
2 57457  43.0045 152.8038 0001386 261.2223  98.8462 15.02541503 40309
STARLINK-30140          
1 57458U 23107B   24104.48306944  .00002362  00000+0  18979-3 0  9990
2 57458  43.0019 156.7527 0001190 273.6586  86.4120 15.02544704 40534
STARLINK-30185          
1 57459U 23107C   24104.61270124  .00005625  00000+0  43113-3 0  9999
2 57459  43.0025 156.0027 0001482 263.4070  96.6604 15.02537032 40557
STARLINK-30077          
1 57460U 23107D   24105.14118426  .00004599  00000+0  35514-3 0  9991
2 57460  43.0024 153.0861 0001239 271.4986  88.5714 15.02550674 40623
STARLINK-30229          
1 57461U 23107E   24104.62268551  .00001596  00000+0  13313-3 0  9996
2 57461  43.0023 156.0758 0001099 272.4432  87.6284 15.02543824 40555
STARLINK-30088          
1 57462U 23107F   24105.13785130 -.00000028  00000+0  12976-4 0  9996
2 57462  42.9987 153.0608 0000607 288.0468  72.0308 15.02543448 40614
STARLINK-30091          
1 57463U 23107G   24104.46643379 -.00000698  00000+0 -36580-4 0  9991
2 57463  43.0014 156.6213 0001129 275.4459  84.6255 15.02531238 40534
STARLINK-30115          
1 57464U 23107H   24105.18163948 -.00052332  00000+0 -38573-2 0  9995
2 57464  42.9994 152.5080 0004587 298.9251  61.1132 15.02822476 40629
STARLINK-30116          
1 57465U 23107J   24105.19879266  .00005380  00000+0  41297-3 0  9991
2 57465  43.0011 152.6535 0001470 254.1192 105.9488 15.02542763 40522
STARLINK-30092          
1 57467U 23107L   24105.12454021  .00001465  00000+0  12353-3 0  9995
2 57467  43.0034 152.9568 0001700 226.3440 133.7262 15.02538947 40709
STARLINK-30039          
1 57468U 23107M   24105.12121302  .00001531  00000+0  12840-3 0  9994
2 57468  43.0029 152.9336 0001542 254.8725 105.1947 15.02541563 40513
STARLINK-30171          
1 57469U 23107N   24104.58273503  .00001922  00000+0  15733-3 0  9993
2 57469  43.0022 155.7736 0001339 270.4591  89.6098 15.02537001 40550
STARLINK-30186          
1 57470U 23107P   24104.51958069  .00001637  00000+0  13622-3 0  9993
2 57470  43.0025 156.1623 0000948 277.9447  82.1288 15.02544901 40547
STARLINK-30190          
1 57471U 23107Q   24104.43978462  .00002940  00000+0  23253-3 0  9993
2 57471  43.0017 156.4220 0001150 265.2222  94.8489 15.02545264 40537
